ONEWEB-0520             
1 54138U 22138AB  25286.95270839 -.00000276  00000+0 -72076-3 0  9994
2 54138  87.9275 353.9352 0001833 109.2575 250.8756 13.19722041144344
ONEWEB-0521             
1 54139U 22138AC  25286.45516996  .00000099  00000+0  21414-3 0  9998
2 54139  87.9276 354.0194 0001765  92.4255 267.7079 13.19727170144224
ONEWEB-0522             
1 54140U 22138AD  25286.88954536  .00000034  00000+0  53345-4 0  9991
2 54140  87.9275 353.9343 0001782 105.0272 255.1059 13.19724800144325
ONEWEB-0523             
1 54141U 22138AE  25286.82090101  .00000093  00000+0  19580-3 0  9992
2 54141  87.9216 323.5758 0002506  80.2305 279.9112 13.20774193146788
ONEWEB-0524             
1 54142U 22138AF  25286.80987585  .00000109  00000+0  23527-3 0  9996
2 54142  87.9219 323.5792 0002809  98.4814 261.6638 13.20772135146787
ONEWEB-0525             
1 54143U 22138AG  25286.90848543  .00000098  00000+0  21331-3 0  9996
2 54143  87.9277 353.9529 0001774 109.8769 250.2555 13.19726806144347
ONEWEB-0526             
1 54144U 22138AH  25286.94165274 -.00000113  00000+0 -31458-3 0  9995
2 54144  87.9274 353.9326 0001913 102.3741 257.7606 13.19723166144326
ONEWEB-0529             
1 54145U 22138AJ  25286.94481077 -.00000165  00000+0 -44499-3 0  9994
2 54145  87.9257 353.9684 0001829 107.1391 252.9942 13.19726031144341
